NORAD_CAT_ID,OBJECT_NAME,OBJECT_TYPE,EPOCH,MEAN_MOTION,ECCENTRICITY,INCLINATION,RA_OF_ASC_NODE,ARG_OF_PERICENTER,MEAN_ANOMALY,BSTAR,MEAN_MOTION_DOT,MEAN_MOTION_DDOT,TLE_LINE0,TLE_LINE1,TLE_LINE2,SEMIMAJOR_AXIS,PERIOD,APOGEE,PERIGEE,DECAYED
51858.0,STARLINK-3563,PAYLOAD,2022-07-30 22:00:00,15.08827363,0.0002182,53.2171,174.825,61.2758,250.9349,0.0007563,0.00011765,0.0,0 STARLINK-3563,1 51858U 22022G   22211.91667824  .00011765  00000-0  75630-3 0  9990,2 51858  53.2171 174.8250 0002182  61.2758 250.9349 15.08827363  1306,6917.919,95.438,541.294,538.275,0.0
51858.0,STARLINK-3563,PAYLOAD,2022-07-31 06:00:02,15.08819432,0.0002353,53.217,173.3305,56.2605,267.6017,0.00090398,0.0001412,0.0,0 STARLINK-3563,1 51858U 22022G   22212.25002315  .00014120  00000-0  90398-3 0  9992,2 51858  53.2170 173.3305 0002353  56.2605 267.6017 15.08819432 24125,6917.943,95.439,541.436,538.18,0.0
51858.0,STARLINK-3563,PAYLOAD,2022-07-31 14:00:01,15.08844906,0.0002246,53.2168,171.8331,58.51,276.8649,-0.0019561,-0.0003128999999999,0.0,0 STARLINK-3563,1 51858U 22022G   22212.58334491 -.00031290  00000-0 -19561-2 0  9992,2 51858  53.2168 171.8331 0002246  58.5100 276.8649 15.08844906  1302,6917.865,95.437,541.284,538.177,0.0
51858.0,STARLINK-3563,PAYLOAD,2022-07-31 22:00:00,15.08838658,0.0002208,53.2171,170.3364,63.3362,283.6225,0.00029331,4.383e-05,0.0,0 STARLINK-3563,1 51858U 22022G   22212.91667824  .00004383  00000-0  29331-3 0  9996,2 51858  53.2171 170.3364 0002208  63.3362 283.6225 15.08838658  1301,6917.884,95.438,541.2769999999998,538.222,0.0
51858.0,STARLINK-3563,PAYLOAD,2022-08-01 14:00:01,15.08849106,0.0002275,53.2165,167.3443,61.3173,308.8265,-0.0014749,-0.00023691,0.0,0 STARLINK-3563,1 51858U 22022G   22213.58334491 -.00023691  00000-0 -14749-2 0  9992,2 51858  53.2165 167.3443 0002275  61.3173 308.8265 15.08849106  1304,6917.853,95.437,541.2909999999998,538.144,0.0
51858.0,STARLINK-3563,PAYLOAD,2022-08-01 22:00:00,15.08850575,0.0002268,53.2167,165.8478,65.3393,316.396,-0.00013213,-2.391e-05,0.0,0 STARLINK-3563,1 51858U 22022G   22213.91667824 -.00002391  00000-0 -13213-3 0  9998,2 51858  53.2167 165.8478 0002268  65.3393 316.3960 15.08850575  1305,6917.848000000001,95.437,541.2819999999998,538.144,0.0
51858.0,STARLINK-3563,PAYLOAD,2022-08-02 06:00:02,15.08829016,0.0002413,53.2165,164.3531,60.5329,332.8753,0.0017216999999999,0.00027211,0.0,0 STARLINK-3563,1 51858U 22022G   22214.25002315  .00027211  00000-0  17217-2 0  9997,2 51858  53.2165 164.3531 0002413  60.5329 332.8753 15.08829016 24433,6917.9140000000025,95.438,541.448,538.11,0.0
51858.0,STARLINK-3563,PAYLOAD,2022-08-02 14:00:01,15.0885319,0.0002323999999999,53.2162,162.8553,63.503,341.4380000000001,-0.0010004,-0.00016181,0.0,0 STARLINK-3563,1 51858U 22022G   22214.58334491 -.00016181  00000-0 -10004-2 0  9999,2 51858  53.2162 162.8553 0002324  63.5030 341.4380 15.08853190 24487,6917.84,95.437,541.313,538.097,0.0
51858.0,STARLINK-3563,PAYLOAD,2022-08-03 14:00:01,15.08834553,0.0002285,53.216,158.3661,63.6787,16.0663,-0.00039828,-6.621e-05,0.0,0 STARLINK-3563,1 51858U 22022G   22215.58334491 -.00006621  00000-0 -39828-3 0  9994,2 51858  53.2160 158.3661 0002285  63.6787  16.0663 15.08834553 24639,6917.897,95.438,541.3430000000002,538.181,0.0
51858.0,STARLINK-3563,PAYLOAD,2022-08-03 22:00:01,15.08849425,0.000235,53.216,156.8697,66.1259,25.2616,-0.00077951,-0.00012677,0.0,0 STARLINK-3563,1 51858U 22022G   22215.91668981 -.00012677  00000-0 -77951-3 0  9992,2 51858  53.2160 156.8697 0002350  66.1259  25.2616 15.08849425  1309,6917.852,95.437,541.342,538.091,0.0
51858.0,STARLINK-3563,PAYLOAD,2022-08-04 14:00:01,15.0884437,0.0002348,53.2161,153.8768,64.7701,49.7555,0.00013625,1.881e-05,0.0,0 STARLINK-3563,1 51858U 22022G   22216.58334491  .00001881  00000-0  13625-3 0  9993,2 51858  53.2161 153.8768 0002348  64.7701  49.7555 15.08844370  1306,6917.8669999999975,95.437,541.356,538.1080000000002,0.0
51858.0,STARLINK-3563,PAYLOAD,2022-08-04 22:00:00,15.08839405,0.0002348,53.2163,152.3805,65.6454,60.4283,-0.0010352,-0.00016726,0.0,0 STARLINK-3563,1 51858U 22022G   22216.91667824 -.00016726  00000-0 -10352-2 0  9998,2 51858  53.2163 152.3805 0002348  65.6454  60.4283 15.08839405 24833,6917.882,95.438,541.372,538.123,0.0
51858.0,STARLINK-3563,PAYLOAD,2022-08-05 14:00:01,15.08831366,0.0002325,53.2164,149.3876,65.2105,84.1039,0.00074886,0.00011647,0.0,0 STARLINK-3563,1 51858U 22022G   22217.58335648  .00011647  00000-0  74886-3 0  9996,2 51858  53.2164 149.3876 0002325  65.2105  84.1039 15.08831366  1309,6917.906999999997,95.438,541.38,538.163,0.0
51858.0,STARLINK-3563,PAYLOAD,2022-08-05 22:00:00,15.0886001,0.0002406,53.2166,147.8915,66.9997,93.8386,-0.0010829,-0.00017492,0.0,0 STARLINK-3563,1 51858U 22022G   22217.91667824 -.00017492  00000-0 -10829-2 0  9999,2 51858  53.2166 147.8915 0002406  66.9997  93.8386 15.08860010 24984,6917.819,95.436,541.349,538.02,0.0
51858.0,STARLINK-3563,PAYLOAD,2022-08-06 14:00:01,15.0882738,0.0002334,53.2168,144.8983,65.7514,118.2849,0.0011954,0.00018782,0.0,0 STARLINK-3563,1 51858U 22022G   22218.58334491  .00018782  00000-0  11954-2 0  9995,2 51858  53.2168 144.8983 0002334  65.7514 118.2849 15.08827380  1300,6917.919,95.438,541.399,538.169,0.0
51858.0,STARLINK-3563,PAYLOAD,2022-08-06 22:00:00,15.08859813,0.0002394,53.2169,143.4025,67.1508,128.4704,-0.0012148,-0.00019581,0.0,0 STARLINK-3563,1 51858U 22022G   22218.91667824 -.00019581  00000-0 -12148-2 0  9997,2 51858  53.2169 143.4025 0002394  67.1508 128.4704 15.08859813  1307,6917.82,95.436,541.341,538.029,0.0
51858.0,STARLINK-3563,PAYLOAD,2022-08-07 05:05:08,15.08837399,0.0002394,53.2179,142.0773,65.5642,294.56,9.0666e-05,1.155e-05,0.0,0 STARLINK-3563,1 51858U 22022G   22219.21190363  .00001155  00000-0  90666-4 0  9999,2 51858  53.2179 142.0773 0002394  65.5642 294.5600 15.08837399 25181,6917.888000000001,95.438,541.409,538.097,0.0
51858.0,STARLINK-3563,PAYLOAD,2022-08-07 14:00:01,15.08847933,0.0002304,53.2168,140.4091,68.0274,150.8143,0.00045546,6.97e-05,0.0,0 STARLINK-3563,1 51858U 22022G   22219.58334491  .00006970  00000-0  45546-3 0  9997,2 51858  53.2168 140.4091 0002304  68.0274 150.8143 15.08847933  1303,6917.856,95.437,541.315,538.127,0.0
51858.0,STARLINK-3563,PAYLOAD,2022-08-07 22:00:00,15.08861728,0.0002299,53.217,138.9135,68.4005,162.0521,-0.0022605999999999,-0.00036109,0.0,0 STARLINK-3563,1 51858U 22022G   22219.91667824 -.00036109  00000-0 -22606-2 0  9993,2 51858  53.2170 138.9135 0002299  68.4005 162.0521 15.08861728 25282,6917.814,95.436,541.269,538.089,0.0
51858.0,STARLINK-3563,PAYLOAD,2022-08-08 14:00:01,15.08850663,0.0002168,53.2168,135.9201,70.0803,183.6647,0.0014941,0.00023578,0.0,0 STARLINK-3563,1 51858U 22022G   22220.58335648  .00023578  00000-0  14941-2 0  9991,2 51858  53.2168 135.9201 0002168  70.0803 183.6647 15.08850663  1301,6917.848000000001,95.437,541.2130000000002,538.2130000000002,0.0
51858.0,STARLINK-3563,PAYLOAD,2022-08-08 22:00:00,15.08877642,0.0002139,53.2169,134.4247,69.6201,195.6809,-0.0028732,-0.00045773,0.0,0 STARLINK-3563,1 51858U 22022G   22220.91667824 -.00045773  00000-0 -28732-2 0  9998,2 51858  53.2169 134.4247 0002139  69.6201 195.6809 15.08877642  1309,6917.765,95.435,541.11,538.151,0.0
51858.0,STARLINK-3563,PAYLOAD,2022-08-09 14:00:01,15.08789895,0.0001904,53.2167,131.4313,68.9858,219.5215,0.002479,0.00039332,0.0,0 STARLINK-3563,1 51858U 22022G   22221.58334491  .00039332  00000-0  24790-2 0  9995,2 51858  53.2167 131.4313 0001904  68.9858 219.5215 15.08789895  1306,6918.034000000002,95.441,541.216,538.581,0.0
51858.0,STARLINK-3563,PAYLOAD,2022-08-09 22:00:00,15.08828464,0.0001986,53.2168,129.9361,68.1165,231.9382,-0.0011803,-0.00019018,0.0,0 STARLINK-3563,1 51858U 22022G   22221.91667824 -.00019018  00000-0 -11803-2 0  9993,2 51858  53.2168 129.9361 0001986  68.1165 231.9382 15.08828464  1304,6917.916,95.438,541.155,538.4069999999998,0.0
51858.0,STARLINK-3563,PAYLOAD,2022-08-10 14:00:01,15.0880608,0.0001956999999999,53.2167,126.9426,70.2481,252.9649,0.0032097,0.00051118,0.0,0 STARLINK-3563,1 51858U 22022G   22222.58334491  .00051118  00000-0  32097-2 0  9991,2 51858  53.2167 126.9426 0001957  70.2481 252.9649 15.08806080  1304,6917.984,95.44,541.203,538.495,0.0
51858.0,STARLINK-3563,PAYLOAD,2022-08-10 17:07:18,15.08821996,0.0001999,53.2168,126.3586,71.6339,238.46400000000003,0.0021427,0.00033961,0.0,0 STARLINK-3563,1 51858U 22022G   22222.71341435  .00033961  00000-0  21427-2 0  9993,2 51858  53.2168 126.3586 0001999  71.6339 238.4640 15.08821996 25702,6917.935,95.439,541.183,538.418,0.0
51858.0,STARLINK-3563,PAYLOAD,2022-08-10 22:00:00,15.08858016,0.0002029,53.2168,125.4475,68.184,266.5983,-0.0029167,-0.00046433,0.0,0 STARLINK-3563,1 51858U 22022G   22222.91667824 -.00046433  00000-0 -29167-2 0  9997,2 51858  53.2168 125.4475 0002029  68.1840 266.5983 15.08858016  1307,6917.825,95.436,541.094,538.2869999999998,0.0
51858.0,STARLINK-3563,PAYLOAD,2022-08-11 06:00:02,15.08817491,0.0002013,53.2166,123.9517,62.9003,283.5420000000001,0.00040285,6.125e-05,0.0,0 STARLINK-3563,1 51858U 22022G   22223.25002315  .00006125  00000-0  40285-3 0  9990,2 51858  53.2166 123.9517 0002013  62.9003 283.5420 15.08817491 25786,6917.949000000001,95.439,541.207,538.422,0.0
51858.0,STARLINK-3563,PAYLOAD,2022-08-11 14:00:01,15.087986,0.0001916999999999,53.2168,122.4537,69.9413,288.0219,0.0034225,0.00054541,0.0,0 STARLINK-3563,1 51858U 22022G   22223.58334491  .00054541  00000-0  34225-2 0  9990,2 51858  53.2168 122.4537 0001917  69.9413 288.0219 15.08798600  1306,6918.007,95.44,541.198,538.5459999999998,0.0
51858.0,STARLINK-3563,PAYLOAD,2022-08-12 14:00:01,15.08833922,0.0001949,53.217,117.9646,70.2919,322.4435,0.0028843,0.00045908,0.0,0 STARLINK-3563,1 51858U 22022G   22224.58334491  .00045908  00000-0  28843-2 0  9997,2 51858  53.2170 117.9646 0001949  70.2919 322.4435 15.08833922 25991,6917.899,95.438,541.112,538.4159999999998,0.0
